COMMENT,ORIGINATOR,NORAD_CAT_ID,OBJECT_NAME,OBJECT_TYPE,CLASSIFICATION_TYPE,INTLDES,EPOCH,EPOCH_MICROSECONDS,MEAN_MOTION,ECCENTRICITY,INCLINATION,RA_OF_ASC_NODE,ARG_OF_PERICENTER,MEAN_ANOMALY,EPHEMERIS_TYPE,ELEMENT_SET_NO,REV_AT_EPOCH,BSTAR,MEAN_MOTION_DOT,MEAN_MOTION_DDOT,FILE,TLE_LINE0,TLE_LINE1,TLE_LINE2,OBJECT_ID,OBJECT_NUMBER,SEMIMAJOR_AXIS,PERIOD,APOGEE,PERIGEE,DECAYED
GENERATED VIA SPACETRACK.ORG API,18 SPCS,52365,STARLINK-3874,PAYLOAD,U,22045AL,2023-02-16 23:38:45,782304,15.08894876,4.4e-05,53.2161,162.1968,94.0476,266.0567,0,999,4733,0.00048457,7.444e-05,0,3799145,0 STARLINK-3874,1 52365U 22045AL  23047.98525211  .00007444  00000-0  48457-3 0  9993,2 52365  53.2161 162.1968 0000440  94.0476 266.0567 15.08894876 47337,2022-045AL,52365,6917.713,95.434,539.882,539.273,0
GENERATED VIA SPACETRACK.ORG API,18 SPCS,52365,STARLINK-3874,PAYLOAD,U,22045AL,2023-02-17 07:35:42,465408,15.08811218,0.0001055,53.2169,160.7106,80.013,280.0981,0,999,4738,-0.0001041,-1.943e-05,0,3800551,0 STARLINK-3874,1 52365U 22045AL  23048.31646372 -.00001943  00000-0 -10410-3 0  9991,2 52365  53.2169 160.7106 0001055  80.0130 280.0981 15.08811218 47388,2022-045AL,52365,6917.968,95.439,540.563,539.104,0
GENERATED VIA SPACETRACK.ORG API,18 SPCS,52365,STARLINK-3874,PAYLOAD,U,22045AL,2023-02-17 13:57:15,546816,15.08816543,0.0001159,53.2153,159.5229,79.0974,281.0148,0,999,4742,0.0014856,0.00023419,0,3802730,0 STARLINK-3874,1 52365U 22045AL  23048.58142994  .00023419  00000-0  14856-2 0  9998,2 52365  53.2153 159.5229 0001159  79.0974 281.0148 15.08816543 47429,2022-045AL,52365,6917.952,95.439,540.619,539.015,0
GENERATED VIA SPACETRACK.ORG API,18 SPCS,52365,STARLINK-3874,PAYLOAD,U,22045AL,2023-02-17 13:57:15,546816,15.08816543,0.0001159,53.2153,159.5229,79.0974,281.0148,0,999,4742,0.0014856,0.00023419,0,3803435,0 STARLINK-3874,1 52365U 22045AL  23048.58142994  .00023419  00000-0  14856-2 0  9998,2 52365  53.2153 159.5229 0001159  79.0974 281.0148 15.08816543 47429,2022-045AL,52365,6917.952,95.439,540.619,539.015,0
GENERATED VIA SPACETRACK.ORG API,18 SPCS,52365,STARLINK-3874,PAYLOAD,U,22045AL,2023-02-18 10:37:17,617728,15.08826743,8.29e-05,53.2184,155.656,29.5512,330.5527,0,999,4755,0.0010267,0.00016084,0,3806502,0 STARLINK-3874,1 52365U 22045AL  23049.44256502  .00016084  00000-0  10267-2 0  9997,2 52365  53.2184 155.6560 0000829  29.5512 330.5527 15.08826743 47557,2022-045AL,52365,6917.921,95.438,540.359,539.212,0
GENERATED VIA SPACETRACK.ORG API,18 SPCS,52365,STARLINK-3874,PAYLOAD,U,22045AL,2023-02-18 13:48:04,116096,15.08819782,9.18e-05,53.2182,155.0599,61.7661,298.3424,0,999,4757,0.00056183,8.66e-05,0,3807124,0 STARLINK-3874,1 52365U 22045AL  23049.57504764  .00008660  00000-0  56183-3 0  9996,2 52365  53.2182 155.0599 0000918  61.7661 298.3424 15.08819782 47577,2022-045AL,52365,6917.942,95.439,540.442,539.172,0
GENERATED VIA SPACETRACK.ORG API,18 SPCS,52365,STARLINK-3874,PAYLOAD,U,22045AL,2023-02-18 23:20:23,101440,15.08833376,0.0001084,53.2171,153.2764,76.1052,284.0061,0,999,4763,0.00069811,0.00010838,0,3809891,0 STARLINK-3874,1 52365U 22045AL  23049.97248960  .00010838  00000-0  69811-3 0  9995,2 52365  53.2171 153.2764 0001084  76.1052 284.0061 15.08833376 47639,2022-045AL,52365,6917.901,95.438,540.516,539.016,0
GENERATED VIA SPACETRACK.ORG API,18 SPCS,52365,STARLINK-3874,PAYLOAD,U,22045AL,2023-02-19 13:38:50,931456,15.08858822,0.0001074,53.2167,150.6009,76.3724,283.7387,0,999,4772,0.0010343,0.0001622,0,3811610,0 STARLINK-3874,1 52365U 22045AL  23050.56864504  .00016220  00000-0  10343-2 0  9996,2 52365  53.2167 150.6009 0001074  76.3724 283.7387 15.08858822 47724,2022-045AL,52365,6917.823,95.436,540.431,538.945,0
GENERATED VIA SPACETRACK.ORG API,18 SPCS,52365,STARLINK-3874,PAYLOAD,U,22045AL,2023-02-20 13:29:37,627584,15.08854765,0.0001133,53.2164,146.1412,91.8774,268.2348,0,999,4787,0.00052391,8.063e-05,0,3815580,0 STARLINK-3874,1 52365U 22045AL  23051.56224106  .00008063  00000-0  52391-3 0  9991,2 52365  53.2164 146.1412 0001133  91.8774 268.2348 15.08854765 47875,2022-045AL,52365,6917.835,95.437,540.484,538.916,0
GENERATED VIA SPACETRACK.ORG API,18 SPCS,52365,STARLINK-3874,PAYLOAD,U,22045AL,2023-02-20 13:29:37,627584,15.08854765,0.0001133,53.2164,146.1412,91.8774,268.2348,0,999,4787,0.00052391,8.063e-05,0,3815761,0 STARLINK-3874,1 52365U 22045AL  23051.56224106  .00008063  00000-0  52391-3 0  9991,2 52365  53.2164 146.1412 0001133  91.8774 268.2348 15.08854765 47875,2022-045AL,52365,6917.835,95.437,540.484,538.916,0
GENERATED VIA SPACETRACK.ORG API,18 SPCS,52365,STARLINK-3874,PAYLOAD,U,22045AL,2023-02-21 13:20:24,917280,15.08853597,0.0001673,53.2171,141.6809,74.91,285.2077,0,999,4802,0.0010626,0.0001667,0,3819501,0 STARLINK-3874,1 52365U 22045AL  23052.55584395  .00016670  00000-0  10626-2 0  9997,2 52365  53.2171 141.6809 0001673  74.9100 285.2077 15.08853597 48025,2022-045AL,52365,6917.839,95.437,540.861,538.546,0
GENERATED VIA SPACETRACK.ORG API,18 SPCS,52365,STARLINK-3874,PAYLOAD,U,22045AL,2023-02-21 13:20:24,917280,15.08853597,0.0001673,53.2171,141.6809,74.91,285.2077,0,999,4802,0.0010626,0.0001667,0,3819803,0 STARLINK-3874,1 52365U 22045AL  23052.55584395  .00016670  00000-0  10626-2 0  9997,2 52365  53.2171 141.6809 0001673  74.9100 285.2077 15.08853597 48025,2022-045AL,52365,6917.839,95.437,540.861,538.546,0
GENERATED VIA SPACETRACK.ORG API,18 SPCS,52365,STARLINK-3874,PAYLOAD,U,22045AL,2023-02-21 18:06:33,888096,15.08870925,0.0001599,53.2174,140.7873,84.6202,275.4972,0,999,4805,0.0014432,0.00022775,0,3821329,0 STARLINK-3874,1 52365U 22045AL  23052.75455889  .00022775  00000-0  14432-2 0  9996,2 52365  53.2174 140.7873 0001599  84.6202 275.4972 15.08870925 48059,2022-045AL,52365,6917.786,95.436,540.757,538.545,0
GENERATED VIA SPACETRACK.ORG API,18 SPCS,52365,STARLINK-3874,PAYLOAD,U,22045AL,2023-02-21 18:06:33,888096,15.08870925,0.0001599,53.2174,140.7873,84.6202,275.4972,0,999,4805,0.0014432,0.00022775,0,3822075,0 STARLINK-3874,1 52365U 22045AL  23052.75455889  .00022775  00000-0  14432-2 0  9996,2 52365  53.2174 140.7873 0001599  84.6202 275.4972 15.08870925 48059,2022-045AL,52365,6917.786,95.436,540.757,538.545,0
GENERATED VIA SPACETRACK.ORG API,18 SPCS,52365,STARLINK-3874,PAYLOAD,U,22045AL,2023-02-22 11:35:48,298560,15.08850881,0.000131,53.2156,137.5176,96.0797,264.0345,0,999,4816,0.00096389,0.0001509,0,3823636,0 STARLINK-3874,1 52365U 22045AL  23053.48319790  .00015090  00000-0  96389-3 0  9991,2 52365  53.2156 137.5176 0001310  96.0797 264.0345 15.08850881 48165,2022-045AL,52365,6917.847,95.437,540.618,538.806,0
GENERATED VIA SPACETRACK.ORG API,18 SPCS,52365,STARLINK-3874,PAYLOAD,U,22045AL,2023-02-22 13:11:11,415552,15.08853042,0.0001304,53.2156,137.2208,89.1496,270.9646,0,999,4817,0.0011595,0.0001822,0,3824148,0 STARLINK-3874,1 52365U 22045AL  23053.54943768  .00018220  00000-0  11595-2 0  9999,2 52365  53.2156 137.2208 0001304  89.1496 270.9646 15.08853042 48173,2022-045AL,52365,6917.841,95.437,540.608,538.803,0
GENERATED VIA SPACETRACK.ORG API,18 SPCS,52365,STARLINK-3874,PAYLOAD,U,22045AL,2023-02-23 05:05:03,144480,15.08844039,0.0001707,53.2149,134.2511,82.4156,277.703,0,999,4827,0.00033562,5.058e-05,0,3827277,0 STARLINK-3874,1 52365U 22045AL  23054.21184195  .00005058  00000-0  33562-3 0  9999,2 52365  53.2149 134.2511 0001707  82.4156 277.7030 15.08844039 48274,2022-045AL,52365,6917.868,95.437,540.914,538.552,0
GENERATED VIA SPACETRACK.ORG API,18 SPCS,52365,STARLINK-3874,PAYLOAD,U,22045AL,2023-02-23 11:26:35,873376,15.08835155,0.0001519,53.2161,133.0586,98.0852,262.0312,0,999,4831,7.7072e-05,9.39e-06,0,3828819,0 STARLINK-3874,1 52365U 22045AL  23054.47680409  .00000939  00000-0  77072-4 0  9994,2 52365  53.2161 133.0586 0001519  98.0852 262.0312 15.08835155 48318,2022-045AL,52365,6917.895,95.438,540.811,538.709,0
GENERATED VIA SPACETRACK.ORG API,18 SPCS,52365,STARLINK-3874,PAYLOAD,U,22045AL,2023-02-23 22:34:17,959296,15.08839476,0.0001414,53.2154,130.9764,96.3465,263.7688,0,999,4838,0.00019726,2.853e-05,0,3830259,0 STARLINK-3874,1 52365U 22045AL  23054.94048564  .00002853  00000-0  19726-3 0  9994,2 52365  53.2154 130.9764 0001414  96.3465 263.7688 15.08839476 48380,2022-045AL,52365,6917.882,95.438,540.725,538.769,0
GENERATED VIA SPACETRACK.ORG API,18 SPCS,52365,STARLINK-3874,PAYLOAD,U,22045AL,2023-02-23 22:34:17,959296,15.08839476,0.0001414,53.2154,130.9764,96.3465,263.7688,0,999,4838,0.00019726,2.853e-05,0,3830532,0 STARLINK-3874,1 52365U 22045AL  23054.94048564  .00002853  00000-0  19726-3 0  9994,2 52365  53.2154 130.9764 0001414  96.3465 263.7688 15.08839476 48380,2022-045AL,52365,6917.882,95.438,540.725,538.769,0
GENERATED VIA SPACETRACK.ORG API,18 SPCS,52365,STARLINK-3874,PAYLOAD,U,22045AL,2023-02-24 11:17:23,53344,15.0884442,0.0001283,53.2154,128.5974,91.0295,269.0844,0,999,4846,0.00050278,7.724e-05,0,3832867,0 STARLINK-3874,1 52365U 22045AL  23055.47040571  .00007724  00000-0  50278-3 0  9992,2 52365  53.2154 128.5974 0001283  91.0295 269.0844 15.08844420 48460,2022-045AL,52365,6917.867,95.437,540.619,538.844,0
GENERATED VIA SPACETRACK.ORG API,18 SPCS,52365,STARLINK-3874,PAYLOAD,U,22045AL,2023-02-25 04:46:37,869888,15.08840317,0.000156,53.2165,125.3282,94.2019,265.9151,0,999,4857,0.00016241,2.298e-05,0,3836149,0 STARLINK-3874,1 52365U 22045AL  23056.19904942  .00002298  00000-0  16241-3 0  9996,2 52365  53.2165 125.3282 0001560  94.2019 265.9151 15.08840317 48575,2022-045AL,52365,6917.879,95.438,540.824,538.665,0
GENERATED VIA SPACETRACK.ORG API,18 SPCS,52365,STARLINK-3874,PAYLOAD,U,22045AL,2023-02-25 09:32:47,523264,15.08832715,0.0001262,53.2167,124.4367,78.8517,281.2617,0,999,4860,1.8904e-05,1.3e-07,0,3837605,0 STARLINK-3874,1 52365U 22045AL  23056.39777226  .00000013  00000-0  18904-4 0  9993,2 52365  53.2167 124.4367 0001262  78.8517 281.2617 15.08832715 48606,2022-045AL,52365,6917.903,95.438,540.641,538.895,0
